{
  "type": "FeatureCollection",
  "features": [
    {
      "type": "Feature",
      "properties": {
        "norad_id": 36528,
        "name": "COSMOS 2251 DEB",
        "group": "cosmos-2251-debris",
        "lat": 69.94701867891013,
        "lon": -70.87879957218797,
        "alt_km": 803.363282253189,
        "timestamp": "2025-12-04T03:47:54.939391+00:00",
        "meta_object_name": "COSMOS 2251 DEB",
        "meta_object_id": "1993-036BCN",
        "meta_epoch": "2025-11-28T19:45:32.756256",
        "meta_mean_motion": 14.30521775,
        "meta_eccentricity": 0.00858193,
        "meta_inclination": 74.0168,
        "meta_ra_of_asc_node": 170.5765,
        "meta_arg_of_pericenter": 223.2164,
        "meta_mean_anomaly": 136.2231,
        "meta_ephemeris_type": 0,
        "meta_classification_type": "U",
        "meta_norad_cat_id": 36528,
        "meta_element_set_no": 999,
        "meta_rev_at_epoch": 64228,
        "meta_bstar": 0.00075224171,
        "meta_mean_motion_dot": 2.015e-05,
        "meta_mean_motion_ddot": 0,
        "tle_line1": "1 36528U 93036BCN 25332.82329579  .00002015  00000+0  75224-3 0  9995",
        "tle_line2": "2 36528  74.0168 170.5765 0085819 223.2164 136.2231 14.30521775642289"
      },
      "geometry": {
        "type": "Point",
        "coordinates": [
          -70.87879957218797,
          69.94701867891013
        ]
      }
    },
    {
      "type": "Feature",
      "properties": {
        "norad_id": 36533,
        "name": "COSMOS 2251 DEB",
        "group": "cosmos-2251-debris",
        "lat": 28.22324270370724,
        "lon": 139.81429203373924,
        "alt_km": 735.4784766438224,
        "timestamp": "2025-12-04T03:47:54.939401+00:00",
        "meta_object_name": "COSMOS 2251 DEB",
        "meta_object_id": "1993-036BCT",
        "meta_epoch": "2025-12-02T10:15:35.914464",
        "meta_mean_motion": 14.49752107,
        "meta_eccentricity": 0.00491246,
        "meta_inclination": 74.0095,
        "meta_ra_of_asc_node": 134.2138,
        "meta_arg_of_pericenter": 285.2045,
        "meta_mean_anomaly": 74.3685,
        "meta_ephemeris_type": 0,
        "meta_classification_type": "U",
        "meta_norad_cat_id": 36533,
        "meta_element_set_no": 999,
        "meta_rev_at_epoch": 84335,
        "meta_bstar": 0.00057659582,
        "meta_mean_motion_dot": 2.227e-05,
        "meta_mean_motion_ddot": 0,
        "tle_line1": "1 36533U 93036BCT 25336.42749901  .00002227  00000+0  57660-3 0  9995",
        "tle_line2": "2 36533  74.0095 134.2138 0049124 285.2045  74.3685 14.49752107843351"
      },
      "geometry": {
        "type": "Point",
        "coordinates": [
          139.81429203373924,
          28.22324270370724
        ]
      }
    },
    {
      "type": "Feature",
      "properties": {
        "norad_id": 36539,
        "name": "COSMOS 2251 DEB",
        "group": "cosmos-2251-debris",
        "lat": -57.687479863361105,
        "lon": 44.61629463946952,
        "alt_km": 699.2894794362,
        "timestamp": "2025-12-04T03:47:54.939411+00:00",
        "meta_object_name": "COSMOS 2251 DEB",
        "meta_object_id": "1993-036BCZ",
        "meta_epoch": "2025-12-03T08:20:08.109312",
        "meta_mean_motion": 14.59188198,
        "meta_eccentricity": 0.0027776,
        "meta_inclination": 74.0242,
        "meta_ra_of_asc_node": 73.0949,
        "meta_arg_of_pericenter": 219.543,
        "meta_mean_anomaly": 140.3709,
        "meta_ephemeris_type": 0,
        "meta_classification_type": "U",
        "meta_norad_cat_id": 36539,
        "meta_element_set_no": 999,
        "meta_rev_at_epoch": 83810,
        "meta_bstar": 0.0012029,
        "meta_mean_motion_dot": 5.676e-05,
        "meta_mean_motion_ddot": 0,
        "tle_line1": "1 36539U 93036BCZ 25337.34731608  .00005676  00000+0  12029-2 0  9998",
        "tle_line2": "2 36539  74.0242  73.0949 0027776 219.5430 140.3709 14.59188198838100"
      },
      "geometry": {
        "type": "Point",
        "coordinates": [
          44.61629463946952,
          -57.687479863361105
        ]
      }
    },
    {
      "type": "Feature",
      "properties": {
        "norad_id": 36540,
        "name": "COSMOS 2251 DEB",
        "group": "cosmos-2251-debris",
        "lat": -67.60206178340715,
        "lon": 152.8397776999211,
        "alt_km": 695.0980321174093,
        "timestamp": "2025-12-04T03:47:54.939421+00:00",
        "meta_object_name": "COSMOS 2251 DEB",
        "meta_object_id": "1993-036BDA",
        "meta_epoch": "2025-12-02T20:51:21.650112",
        "meta_mean_motion": 14.58331663,
        "meta_eccentricity": 0.00153879,
        "meta_inclination": 74.0294,
        "meta_ra_of_asc_node": 199.3109,
        "meta_arg_of_pericenter": 270.0205,
        "meta_mean_anomaly": 89.9197,
        "meta_ephemeris_type": 0,
        "meta_classification_type": "U",
        "meta_norad_cat_id": 36540,
        "meta_element_set_no": 999,
        "meta_rev_at_epoch": 85866,
        "meta_bstar": 0.0013440093,
        "meta_mean_motion_dot": 6.206e-05,
        "meta_mean_motion_ddot": 0,
        "tle_line1": "1 36540U 93036BDA 25336.86900058  .00006206  00000+0  13440-2 0  9991",
        "tle_line2": "2 36540  74.0294 199.3109 0015387 270.0205  89.9197 14.58331663858664"
      },
      "geometry": {
        "type": "Point",
        "coordinates": [
          152.8397776999211,
          -67.60206178340715
        ]
      }
    },
    {
      "type": "Feature",
      "properties": {
        "norad_id": 36550,
        "name": "COSMOS 2251 DEB",
        "group": "cosmos-2251-debris",
        "lat": 10.404630217225527,
        "lon": -148.7242191639116,
        "alt_km": 821.5228611852817,
        "timestamp": "2025-12-04T03:47:54.939431+00:00",
        "meta_object_name": "COSMOS 2251 DEB",
        "meta_object_id": "1993-036BDL",
        "meta_epoch": "2025-12-02T08:00:24.910560",
        "meta_mean_motion": 14.27149643,
        "meta_eccentricity": 0.00787603,
        "meta_inclination": 74.0451,
        "meta_ra_of_asc_node": 211.5637,
        "meta_arg_of_pericenter": 264.4889,
        "meta_mean_anomaly": 94.7272,
        "meta_ephemeris_type": 0,
        "meta_classification_type": "U",
        "meta_norad_cat_id": 36550,
        "meta_element_set_no": 999,
        "meta_rev_at_epoch": 84447,
        "meta_bstar": 0.00078484278,
        "meta_mean_motion_dot": 1.953e-05,
        "meta_mean_motion_ddot": 0,
        "tle_line1": "1 36550U 93036BDL 25336.33362165  .00001953  00000+0  78484-3 0  9999",
        "tle_line2": "2 36550  74.0451 211.5637 0078760 264.4889  94.7272 14.27149643844475"
      },
      "geometry": {
        "type": "Point",
        "coordinates": [
          -148.7242191639116,
          10.404630217225527
        ]
      }
    },
    {
      "type": "Feature",
      "properties": {
        "norad_id": 36551,
        "name": "COSMOS 2251 DEB",
        "group": "cosmos-2251-debris",
        "lat": -73.26071208594894,
        "lon": -73.66010229631549,
        "alt_km": 559.550130445472,
        "timestamp": "2025-12-04T03:47:54.939441+00:00",
        "meta_object_name": "COSMOS 2251 DEB",
        "meta_object_id": "1993-036BDM",
        "meta_epoch": "2025-12-01T04:16:57.552096",
        "meta_mean_motion": 15.01965558,
        "meta_eccentricity": 0.00505004,
        "meta_inclination": 73.8879,
        "meta_ra_of_asc_node": 38.501,
        "meta_arg_of_pericenter": 349.5182,
        "meta_mean_anomaly": 10.4947,
        "meta_ephemeris_type": 0,
        "meta_classification_type": "U",
        "meta_norad_cat_id": 36551,
        "meta_element_set_no": 999,
        "meta_rev_at_epoch": 66758,
        "meta_bstar": 0.0014137691,
        "meta_mean_motion_dot": 0.00019039,
        "meta_mean_motion_ddot": 0,
        "tle_line1": "1 36551U 93036BDM 25335.17844389  .00019039  00000+0  14138-2 0  9993",
        "tle_line2": "2 36551  73.8879  38.5010 0050500 349.5182  10.4947 15.01965558667585"
      },
      "geometry": {
        "type": "Point",
        "coordinates": [
          -73.66010229631549,
          -73.26071208594894
        ]
      }
    },
    {
      "type": "Feature",
      "properties": {
        "norad_id": 36557,
        "name": "COSMOS 2251 DEB",
        "group": "cosmos-2251-debris",
        "lat": -69.87100405130214,
        "lon": 91.5359495293231,
        "alt_km": 629.9485769543271,
        "timestamp": "2025-12-04T03:47:54.939462+00:00",
        "meta_object_name": "COSMOS 2251 DEB",
        "meta_object_id": "1993-036BDT",
        "meta_epoch": "2025-11-29T20:08:28.959648",
        "meta_mean_motion": 14.77361907,
        "meta_eccentricity": 0.00205231,
        "meta_inclination": 73.9794,
        "meta_ra_of_asc_node": 151.6562,
        "meta_arg_of_pericenter": 302.0455,
        "meta_mean_anomaly": 57.8725,
        "meta_ephemeris_type": 0,
        "meta_classification_type": "U",
        "meta_norad_cat_id": 36557,
        "meta_element_set_no": 999,
        "meta_rev_at_epoch": 33706,
        "meta_bstar": 0.0024129009,
        "meta_mean_motion_dot": 0.00017224,
        "meta_mean_motion_ddot": 0,
        "tle_line1": "1 36557U 93036BDT 25333.83922407  .00017224  00000+0  24129-2 0  9993",
        "tle_line2": "2 36557  73.9794 151.6562 0020523 302.0455  57.8725 14.77361907337062"
      },
      "geometry": {
        "type": "Point",
        "coordinates": [
          91.5359495293231,
          -69.87100405130214
        ]
      }
    }
  ]
}